HST                     
1 20580U 90037B   26163.25344175  .00006001  00000+0  18892-3 0  9990
2 20580  28.4709 114.2921 0001952  91.9422 268.1398 15.30693075787818
POLAR                   
1 23802U 96013A   26162.64541607  .00000130  00000+0  00000+0 0  9996
2 23802  79.8467 227.1170 6465061 209.2712  89.5051  1.29846140144786
SWAS                    
1 25560U 98071A   26163.31117066  .00003494  00000+0  22326-3 0  9993
2 25560  69.8964 240.0933 0008830 264.4763  95.5394 15.09599237496536
CXO                     
1 25867U 99040B   26164.08641897  .00000611  00000+0  00000+0 0  9998
2 25867  56.1211 116.7320 7849026 310.2825   0.0985  0.37806491 17304
XMM-NEWTON              
1 25989U 99066A   26163.36279180  .00000079  00000+0  00000+0 0  9991
2 25989  64.5165 283.0486 4676939  65.0051   0.0920  0.50123487 22986
TERRA                   
1 25994U 99068A   26163.85047542  .00000357  00000+0  81719-4 0  9998
2 25994  97.9457 213.5685 0001241 206.6950 269.0097 14.61099845408976
CLUSTER II-FM7 (SAMBA)  
1 26410U 00041A   26163.67757316  .00005012  00000+0  00000+0 0  9994
2 26410 149.9129  50.0471 9050232 267.1318 359.9673  0.44876884 20290
CLUSTER II-FM8 (TANGO)  
1 26464U 00045B   26161.68499571  .00004607  00000+0  00000+0 0  9991
2 26464 150.1502  50.7513 9053421 267.6711   3.1468  0.44409835 20284
ODIN                    
1 26702U 01007A   26163.07513511  .00155752  00000+0  10742-2 0  9996
2 26702  97.3846 203.6941 0006725 149.7252 210.4402 15.74099782388599
TIMED                   
1 26998U 01055B   26163.25791154  .00001187  00000+0  11131-3 0  9993
2 26998  74.0675 244.9433 0000836 344.2266  15.8892 14.95285395330086
CORIOLIS                
1 27640U 03001A   26163.26462525  .00000103  00000+0  68982-4 0  9993
2 27640  98.7125 170.2245 0013119 223.7889 136.2248 14.19943530213526
SORCE                   
1 27651U 03004A   26163.82261958  .00002986  00000+0  22434-3 0  9999
2 27651  39.9912 286.5795 0017067  16.4948 343.6399 15.03691992271249
MOST                    
1 27843U 03031D   26163.77628919  .00000069  00000+0  51878-4 0  9995
2 27843  98.7044 171.5638 0008678 264.8247  95.1940 14.21321673190087
SCISAT 1                
1 27858U 03036A   26163.76867361  .00000494  00000+0  67754-4 0  9993
2 27858  73.9285 180.1219 0008633 249.5335 110.4915 14.81443729230794
SWIFT                   
1 28485U 04047A   26163.79770769  .00051754  00000+0  43748-3 0  9992
2 28485  20.5514 218.7533 0001879 217.7523 142.2791 15.67924629186177
HINODE (SOLAR-B)        
1 29479U 06041A   26163.27987054  .00000686  00000+0  12633-3 0  9999
2 29479  98.0549 179.5048 0016193 306.7311  53.2406 14.68616884 54150
SHIJIAN-6 02A (SJ-6 02A)
1 29505U 06046A   26163.86983888  .00005699  00000+0  29275-3 0  9999
2 29505  97.6367 204.9035 0004102 135.0577 225.0989 15.16889751 71610
SHIJIAN-6 02B (SJ-6 02B)
1 29506U 06046B   26163.88097080  .00001156  00000+0  94209-4 0  9996
2 29506  97.7165 192.9660 0015125  72.9405 287.3475 15.01365949 70098
FGRST (GLAST)           
1 33053U 08029A   26162.53193185  .00003028  00000+0  10820-3 0  9991
2 33053  25.5814 243.7508 0007603 258.7530 101.2154 15.23922087994977
SDO                     
1 36395U 10005A   26163.23743869 -.00000080  00000+0  00000+0 0  9999
2 36395  34.6410  86.4181 0001642  52.7163 104.8732  1.00270258 60018
CRYOSAT 2               
1 36508U 10013A   26163.25709199  .00000142  00000+0  34423-4 0  9993
2 36508  92.0350 276.1033 0002194  87.5544 272.5914 14.51897577857367
X-SAT                   
1 37389U 11015C   26163.87279403  .00000009  00000+0  21473-4 0  9995
2 37389  98.3503 141.1013 0014241   1.2637 358.8577 14.25204837787069
GCOM-W1 (SHIZUKU)       
1 38337U 12025A   26163.84427181  .00000434  00000+0  10639-3 0  9999
2 38337  98.2022 104.4657 0001824  78.0016 344.7194 14.57120997748403
NUSTAR                  
1 38358U 12031A   26163.91668980  .00001656  00000+0  49654-4 0  9998
2 38358   6.0261  66.1540 0007275  40.0699 189.2090 15.08762186  1302
NEOSSAT                 
1 39089U 13009D   26163.26176992  .00000146  00000+0  65336-4 0  9999
2 39089  98.4175 343.4117 0009796 260.2976  99.7104 14.35824797696035
BRITE-AUSTRIA           
1 39091U 13009F   26163.82006196  .00000162  00000+0  69818-4 0  9999
2 39091  98.3993 343.3639 0009016 251.2113 108.8095 14.36540476696425
IRIS                    
1 39197U 13033A   26163.11429402  .00000860  00000+0  10469-3 0  9996
2 39197  97.9333   2.4073 0023902 338.9373  21.0855 14.85875027699623
HISAKI (SPRINT-A)       
1 39253U 13049A   26162.53127235  .00000129  00000+0  87786-4 0  9995
2 39253  29.7196 248.7689 0136889 331.0087  28.2938 13.55544127630658
CASSIOPE                
1 39265U 13055A   26163.83157047  .00048390 -45205-6  53048-3 0  9992
2 39265  80.9150  72.0085 0294374  77.0671 286.3260 15.24789163667001
STSAT-3                 
1 39422U 13066G   26163.85124677  .00003983  00000+0  30224-3 0  9990
2 39422  97.6211 133.8086 0011155  55.9969 304.2314 15.02733997683553
SWARM B                 
1 39451U 13067A   26163.81298868  .00003338  00000+0  11908-3 0  9995
2 39451  87.7435 343.6462 0003355  88.2504 271.9130 15.28526059682573
